{
    "links": {
        "self": "http://www.neowsapp.com/rest/v1/neo/3648715?api_key=iIulBulltgU6a56xZRHN4H3l9WmuAYTsLGpBGhQ2"
    },
    "id": "3648715",
    "neo_reference_id": "3648715",
    "name": "(2013 SV24)",
    "designation": "2013 SV24",
    "nasa_jpl_url": "http://ssd.jpl.nasa.gov/sbdb.cgi?sstr=3648715",
    "absolute_magnitude_h": 21.2,
    "estimated_diameter": {
        "kilometers": {
            "estimated_diameter_min": 0.1529519353,
            "estimated_diameter_max": 0.3420109247
        },
        "meters": {
            "estimated_diameter_min": 152.9519353442,
            "estimated_diameter_max": 342.0109247198
        },
        "miles": {
            "estimated_diameter_min": 0.095039897,
            "estimated_diameter_max": 0.2125156703
        },
        "feet": {
            "estimated_diameter_min": 501.8108275547,
            "estimated_diameter_max": 1122.0831222578
        }
    },
    "is_potentially_hazardous_asteroid": false,
    "close_approach_data": [
        {
            "close_approach_date": "2004-10-01",
            "close_approach_date_full": "2004-Oct-01 19:25",
            "epoch_date_close_approach": 1096658700000,
            "relative_velocity": {
                "kilometers_per_second": "12.1779886369",
                "kilometers_per_hour": "43840.7590929908",
                "miles_per_hour": "27240.9427819753"
            },
            "miss_distance": {
                "astronomical": "0.4339489879",
                "lunar": "168.8061562931",
                "kilometers": "64917844.278495773",
                "miles": "40338077.9331287474"
            },
            "orbiting_body": "Earth"
        },
        {
            "close_approach_date": "2013-10-06",
            "close_approach_date_full": "2013-Oct-06 18:44",
            "epoch_date_close_approach": 1381085040000,
            "relative_velocity": {
                "kilometers_per_second": "10.4508848178",
                "kilometers_per_hour": "37623.1853440663",
                "miles_per_hour": "23377.5842489283"
            },
            "miss_distance": {
                "astronomical": "0.2344908323",
                "lunar": "91.2169337647",
                "kilometers": "35079329.046607201",
                "miles": "21797284.3160573338"
            },
            "orbiting_body": "Earth"
        },
        {
            "close_approach_date": "2022-10-12",
            "close_approach_date_full": "2022-Oct-12 01:35",
            "epoch_date_close_approach": 1665538500000,
            "relative_velocity": {
                "kilometers_per_second": "12.7358734338",
                "kilometers_per_hour": "45849.1443617113",
                "miles_per_hour": "28488.8752840867"
            },
            "miss_distance": {
                "astronomical": "0.3634718405",
                "lunar": "141.3905459545",
                "kilometers": "54374613.143779735",
                "miles": "33786817.891980943"
            },
            "orbiting_body": "Earth"
        },
        {
            "close_approach_date": "2029-06-27",
            "close_approach_date_full": "2029-Jun-27 17:52",
            "epoch_date_close_approach": 1877277120000,
            "relative_velocity": {
                "kilometers_per_second": "6.0621950708",
                "kilometers_per_hour": "21823.902254728",
                "miles_per_hour": "13560.5241537781"
            },
            "miss_distance": {
                "astronomical": "1.9498802476",
                "lunar": "758.5034163164",
                "kilometers": "291697931.796032612",
                "miles": "181252690.0191375656"
            },
            "orbiting_body": "Juptr"
        }
    ],
    "orbital_data": {
        "orbit_id": "19",
        "orbit_determination_date": "2017-04-06 08:44:30",
        "first_observation_date": "2013-09-29",
        "last_observation_date": "2013-11-10",
        "data_arc_in_days": 42,
        "observations_used": 92,
        "orbit_uncertainty": "6",
        "minimum_orbit_intersection": ".212256",
        "jupiter_tisserand_invariant": "3.053",
        "epoch_osculation": "2459000.5",
        "eccentricity": ".556623880637415",
        "semi_major_axis": "2.730058288685805",
        "inclination": "17.62403689661958",
        "ascending_node_longitude": "15.98268908637393",
        "orbital_period": "1647.617159320318",
        "perihelion_distance": "1.210442649671172",
        "perihelion_argument": "355.5050644973447",
        "aphelion_distance": "4.249673927700439",
        "perihelion_time": "2458226.520115757786",
        "mean_anomaly": "169.112561586904",
        "mean_motion": ".2184973602414463",
        "equinox": "J2000",
        "orbit_class": {
            "orbit_class_type": "AMO",
            "orbit_class_description": "Near-Earth asteroid orbits similar to that of 1221 Amor",
            "orbit_class_range": "1.017 AU < q (perihelion) < 1.3 AU"
        }
    },
    "is_sentry_object": false
}